STARLINK-5968           
1 56010U 23042AA  26068.01312715  .00000368  00000+0  42292-4 0  9994
2 56010  43.0073  59.3480 0001244 275.0415  85.0285 15.02540905162812
GRBBETA                 
1 60237U 24128C   26068.70717138  .00006748  00000+0  46404-3 0  9996
2 60237  61.9904 205.0764 0051339 114.1677 246.4795 15.05794613 91289
