[{"OBJECT_NAME":"STARLINK-5968","OBJECT_ID":"2023-042AA","EPOCH":"2026-03-09T00:18:54.185760","MEAN_MOTION":15.02540905,"ECCENTRICITY":0.00012449,"INCLINATION":43.0073,"RA_OF_ASC_NODE":59.348,"ARG_OF_PERICENTER":275.0415,"MEAN_ANOMALY":85.0285,"EPHEMERIS_TYPE":0,"CLASSIFICATION_TYPE":"U","NORAD_CAT_ID":56010,"ELEMENT_SET_NO":999,"REV_AT_EPOCH":16281,"BSTAR":4.2292364e-5,"MEAN_MOTION_DOT":3.68e-6,"MEAN_MOTION_DDOT":0},{"OBJECT_NAME":"GRBBETA","OBJECT_ID":"2024-128C","EPOCH":"2026-03-09T16:58:19.607232","MEAN_MOTION":15.05794613,"ECCENTRICITY":0.0051339,"INCLINATION":61.9904,"RA_OF_ASC_NODE":205.0764,"ARG_OF_PERICENTER":114.1677,"MEAN_ANOMALY":246.4795,"EPHEMERIS_TYPE":0,"CLASSIFICATION_TYPE":"U","NORAD_CAT_ID":60237,"ELEMENT_SET_NO":999,"REV_AT_EPOCH":9128,"BSTAR":0.00046403869,"MEAN_MOTION_DOT":6.748e-5,"MEAN_MOTION_DDOT":0}]
